#dP2023  7 11  6  0  0.00000000      96 __u+U ITR00 EXT  IAC
## 2270 194400.00000000   900.00000000 60136 0.2500000000000
+  118   C06C07C08C09C10C11C12C13C14C16C19C20C21C22C23C24C25
+        C26C27C28C29C30C32C33C34C35C36C37C38C39C40C41C42C43
+        C44C45C46E02E03E04E05E07E08E09E10E11E12E13E14E15E18
+        E19E21E24E25E26E27E30E31E34E36G01G02G03G04G05G06G07
+        G08G09G10G11G12G13G14G15G16G17G18G19G20G21G22G23G24
+        G25G26G27G28G29G30G31G32J02J03J04R01R02R03R04R05R07
+        R08R09R11R12R13R14R15R16R17R18R19R20R21R22R24R25  0
++         8  9  9  8  8  8  9  9 13  8  9  9 10  7  9  8  7
++         8  9  9  8  8  7  9  7  7  8  9 10 10  8  9  9  8
++         9  8  8  7  7  7  7  8  7  6  7  7  6  7  8  5  6
++         7  7  7  7  6  8  6  8  8  6  7  6  7  7  7  6  6
++         8  7  7  7  7  7  7  7  7  8  7  8  7  6  7  7  6
++         7  8  7  8  7  7  7  7  8  8  8  9  7  8 10  9  9
++         9  9  6  8  7  9  7  7  8  7  9  9  8  7  7 11  0
%c M  cc GPS ccc cccc cccc cccc cccc ccccc ccccc ccccc ccccc
%c cc cc ccc ccc cccc cccc cccc cccc ccccc ccccc ccccc ccccc
%f  0.0000000  0.000000000  0.00000000000  0.000000000000000
%f  0.0000000  0.000000000  0.00000000000  0.000000000000000
%i    0    0    0    0      0      0      0      0         0
%i    0    0    0    0      0      0      0      0         0
/* IAC                                ULTRA-RAPID PREDICTION
/* S/V CLOCKS ARE ALIGNED TO GNSS TIME                      
/* G:C1WC2W R:C1PC2P E:C1XC5X C:C2IC6I J:C1CC2S             
/* PCV:IGS20_2247 OL/AL:FES2004  NONE     YN ORB:CoN CLK:CoN
*  2023 07 12  5 45  0.00000000
PC06 -19284.702930  28027.021108 -25046.845156    116.650072
PC07  -6500.522617  40637.718295  -8526.553645   -309.774162
PC08    439.137812  23820.869260  34802.700161    431.008464
PC09  -9733.337859  27076.363539 -30574.837839    426.651651
PC10  -1795.428813  41657.595140  -3332.611062   -112.009885
PC11 -23173.182774  15469.561785  -1229.067321    721.674015
PC12 -21610.729239   1341.385993 -17564.568442    781.527319
PC13   6810.747426  27297.493088  31629.368874    313.840657
PC14 -12389.825940  14065.905724  20665.167433    551.275313
PC16 -19986.007508  27635.083258 -24720.434296      9.235466
PC19   7259.360105 -22472.520386 -14868.406587   -938.091468
PC20  14957.965219  -5533.080510 -22894.444450    441.694150
PC21 -14212.237992 -16271.846613  17691.404208   -933.727960
PC22  -4971.107754 -27394.555516   2130.339413   -400.123479
PC23   7725.841397  18456.788948 -19440.776063   -947.194012
PC24 -25392.684839  -1678.745104 -11432.403624    163.390346
PC25 -11319.568531  12685.759847 -22131.512918    166.165074
PC26 -24164.640039 -13096.747595   4714.586439   -147.555478
PC27  16703.355415   6182.763237  21458.011252    168.350722
PC28    730.421191  17988.464928  21320.722850    125.446729
PC29  17060.981896 -20712.760275  -7674.894756    146.118807
PC30  23884.471716  -9898.323371  10471.330757     -2.137576
PC32  14310.844512  16216.634286 -17612.395139   -539.892831
PC33  -7228.245443  22403.278297  14969.584169   -911.817444
PC34 -23954.441575  10930.222859  -9285.060309    212.923153
PC35  -1020.200670 -18215.178481 -21122.702816    590.234573
PC36  12403.378126 -11970.321647  21975.569120   -333.967775
PC37  23383.491199  14157.088129  -5653.152462   -792.416236
PC38  -8509.338986  21592.975337  35225.850465     91.013176
PC39 -24737.088768  28271.784613 -19329.693588     -3.779352
PC40 -12407.810548  38172.758433 -12423.734644    -29.149371
PC41   4599.766546  27479.928848  -1375.932884   -904.311897
PC42 -15340.978730   3856.974900  23028.305105   -615.435654
PC43 -17692.442530  20478.918013   6830.583601     30.307396
PC44 -16898.043361  -5822.772266 -21453.847076    166.033017
PC45  -8262.606196 -18409.504911  19274.526379     76.235235
PC46  24894.101128    705.802701  12632.120018    -68.253638
PE02 -21042.794858 -18297.214122  -9913.342853     49.269714
PE03 -14543.467687  -8957.857209  24175.429944    -35.199208
PE04  19776.386614 -12061.710085 -18421.466136   -164.808144
PE05   -725.330364 -25000.051144  15842.480640     -1.197091
PE07 -13622.041545  26193.827146   2025.733269    -59.328297
PE08 -19666.156738  11732.763145  18749.945545   -113.087758
PE09  13660.386046 -26180.289994  -2172.956048    -81.660748
PE10  24239.901259 -10812.710213 -13125.853497   -547.886419
PE11  15146.012728 -14838.466335 -20667.618353   2463.371016
PE12  28780.704696  -5427.496724  -4251.268202   -614.955320
PE13 -15893.473755  14586.788959  20264.941153    -19.321038
PE14  20541.131239 -10679.457574  14951.415647    279.809387
PE15 -28877.110171   5228.775710   3874.829652    -36.433065
PE18 -19615.210145  -2598.332886 -21683.651642    286.172368
PE19  12926.735679  11590.477309 -23963.398817  -2095.698174
PE21  11668.934835  26039.832505  -7860.156627   -540.226188
PE24   5694.299818 -18674.916285  22234.879823   -204.817509
PE25 -11400.459345 -26061.227853   8198.246485   -608.166186
PE26   7073.863157  15288.615711  24335.265659    160.512424
PE27  -5018.097170  19156.918948 -21994.894281    -97.084899
PE30 -18832.476518    526.100725 -22833.597286   -328.654764
PE31  18573.685341  -1072.474119  23032.907260     -0.209391
PE34 -24797.440204  -7023.177182 -14560.533868    -55.627579
PE36  -6222.441726 -15285.617673 -24578.141836    -84.672093
PG01  -9145.456360 -13608.045081 -21314.733250    173.534224
PG02  -2342.905555 -14652.125654 -21525.766246   -577.019856
PG03 -12478.030480 -23264.499057  -3593.721084   -236.010095
PG04  -3847.129845 -19133.853898  17972.635998     93.356310
PG05    547.374459  20379.116430  16783.757711   -134.569328
PG06 -25247.634571   5520.713159   6400.066209    578.676769
PG07 -22998.381893  -7300.495940  12097.604009    127.523002
PG08   4419.891816 -24439.079821  -8916.655513   -131.732550
PG09 -11732.611275 -10426.110807  21345.056077   -114.284237
PG10  17655.628807   2838.726235 -19566.844558    -44.836753
PG11 -14733.139120  12685.174697  18083.549233   -272.448662
PG12   8424.927138  24382.885070  -6760.394242   -399.657750
PG13 -12924.483202  22861.448242  -3288.447647    545.983962
PG14 -18777.494620  -5975.438422 -17864.582687    119.588082
PG15   -616.831482  24755.196286  -9716.453658     57.225960
PG16   5224.242354 -17589.465986  18728.099141   -481.746433
PG17 -18018.349540   6932.043449 -17855.775962    720.784084
PG18  24422.796365   5250.137569   9262.638809   -342.323512
PG19 -18988.623904  12807.724902 -13380.266142    342.735251
PG20  -7542.726148  14166.619036  21220.293171    423.132380
PG21    235.094605 -15049.399169 -21283.921050    152.241681
PG22  18009.793888 -16432.539065  -9890.943044    511.503300
PG23  19459.727433  14122.374984 -11457.851092     42.349706
PG24   4871.578096  15360.451010 -21503.148651   -255.033158
PG25  17326.261040  19735.691273   4513.774368    455.576023
PG26  13478.733896  -8262.172031  21238.650121    236.711076
PG27  12703.177382 -22977.891273   1801.508012     -1.383294
PG28  25652.783159  -5427.372716   4207.070482     82.803386
PG29   9468.653495  12410.605305  21422.084952   -605.289262
PG30 -26551.833146   -698.147735   2885.324550   -504.893018
PG31  19961.706574 -10725.529961  14011.727396   -219.904237
PG32  17833.024829  -9847.806392 -16755.038455   -519.374174
PJ02 -21418.727035  20956.558546 -25031.616278     -1.300249
PJ03 -29371.393584  28493.549705  14956.068116     -0.047405
PJ04 -26448.082407  28606.424911  22024.855369     96.695566
PR01   1232.285719 -25464.547443  -1068.755855     61.222439
PR02  -6379.097877 -18690.833100  16149.560290    -22.609850
PR03 -10835.859681  -1212.659057  23104.780714     81.373589
PR04  -9082.467082  16421.465900  17311.668495    194.663412
PR05  -2628.129302  25297.591960   2109.719522    115.633753
PR07  10847.655413    403.129087 -23043.134934     59.990101
PR08   8971.495364 -16648.691199 -17043.474689    -71.613867
PR09  18912.539979  15595.047497  -6880.935500    130.720892
PR11  13492.346156  -3478.871062  21375.941678   -102.283142
PR12  -4371.907416 -14522.186218  20537.064310     29.016041
PR13 -17688.788168 -16113.282510   8835.030904    -36.985238
PR14 -21930.928089  -7997.624101 -10292.654925     24.956784
PR15 -12575.996944   4336.168660 -21741.512818     87.905983
PR16   4248.184149  14246.105133 -20702.505152     16.576725
PR17 -21795.145283   4578.337899 -12394.040999     -0.952093
PR18 -21829.428732  12630.893858   3986.009303     91.152503
PR19 -12277.692375  14038.699596  17391.159763   -239.516574
PR20   8595.505866   7285.052956  22881.796792    -96.400360
PR21  22279.792882  -5267.910836  11274.563764    -22.063681
PR22  21814.082291 -12272.064452  -4873.511098     93.624336
PR24  -9653.536127  -7031.533881 -22526.146133    -16.132665
PR25  22053.177672  -3407.926546  12380.046172   1592.256249
EOF
